#dP2023  4 23  0  0  0.00000000      96 __u+U ITR00 FIT  IAC
## 2259      0.00000000   900.00000000 60057 0.0000000000000
+  119   C06C07C08C09C10C11C12C13C14C16C19C20C21C22C23C24C25
+        C26C27C28C29C30C32C33C34C35C36C37C38C39C40C41C42C43
+        C44C45C46E01E02E03E04E05E07E08E10E11E12E13E14E15E18
+        E19E21E24E25E26E27E30E31E33E34E36G01G02G03G04G05G06
+        G07G08G09G10G11G12G13G14G15G16G17G18G19G20G21G22G23
+        G24G25G26G27G28G29G30G31G32J02J03J04R01R02R03R04R05
+        R07R08R09R11R12R13R14R15R16R17R18R19R20R21R22R24R25
++        10  8  8 10  8  7  6  8  8  9  6  8  6  5  8  9  7
++         7  8  7  6  8  6  8  7  6  6  6  9  9  6  7  6  6
++         6  6  7  5  5  5  6  6  5  5  6  6  5  6  5  6  6
++         5  5  5  5  5  6  4  5  5  5  7  5  5  5  6  5  6
++         6  5  5  4  9  5  5  6  6  5  5  8  5  5  5  5  5
++         4  5  5  5  5  5  6  6  5  6  8  6  6  5  6  5  6
++         7  6  7  5  6  6  6  7  5  7  5  7  7  5  7  6  6
%c M  cc GPS ccc cccc cccc cccc cccc ccccc ccccc ccccc ccccc
%c cc cc ccc ccc cccc cccc cccc cccc ccccc ccccc ccccc ccccc
%f  0.0000000  0.000000000  0.00000000000  0.000000000000000
%f  0.0000000  0.000000000  0.00000000000  0.000000000000000
%i    0    0    0    0      0      0      0      0         0
%i    0    0    0    0      0      0      0      0         0
/* INFORMATION & ANALYSIS CENTER (IAC)      ULTRA-RAPID DATA
/* S/V CLOCKS ARE ALIGNED TO GNSS TIME                      
/* G:C1WC2W R:C1PC2P E:C1XC5X C:C2IC6I J:C1CC2S             
/* PCV:IGS20_2247 OL/AL:FES2004  NONE     YN ORB:CoN CLK:CoN
*  2023 04 23 13 15  0.00000000
PC06 -16832.020864  37679.311077  -9290.676575   -196.265732
PC07  -3794.923595  33188.909835 -25593.370297     85.581056
PC08 -11977.972553  19538.867372  35362.906743    499.780676
PC09 -10933.237082  36719.525080 -17793.254026    734.315353
PC10   3891.256560  36257.553291 -20446.711020    -40.445698
PC11  17358.403349 -16753.818535  14101.782215    316.278085
PC12  15562.088746   2383.631798  23072.523170    590.982524
PC13  -3750.983015  21970.889919  35936.217420    259.217685
PC14  14311.142329  -7168.590602 -22831.986802    162.240098
PC16 -19198.545162  37202.495298  -5983.003097    100.602617
PC19  -6863.577670  15564.341392  22147.169513   -903.455948
PC20 -18740.305493   -845.774740  20689.974825    609.354149
PC21  20180.717216  18091.842908  -6558.713310   -911.021700
PC22   9555.578616  23844.116175  10868.561556   -521.882156
PC23  -1331.559419 -16283.809412  22625.683321   -911.907407
PC24  27704.045476  -3192.863574  -1330.465000   -136.903466
PC25  17611.415975 -14684.639540  15907.733475    112.454351
PC26  21416.028391   7968.361325 -16056.611615   -110.378711
PC27 -12072.220523 -11593.604670 -22349.793102    129.867684
PC28    131.831039 -24627.551282 -13122.623759     95.767077
PC29 -12732.840219  24247.447139  -5380.163849    110.997013
PC30 -17756.246618   8288.571395 -19888.531055      0.217914
PC32 -20346.341518 -17967.448946   6539.691940   -573.845032
PC33   6808.959389 -15585.842036 -22118.334740   -875.346996
PC34  17804.077728  -9610.083652  19193.776443    155.285484
PC35    140.628575  25026.308366  12375.443198    640.734503
PC36 -18572.278866  14002.164562 -15395.208116   -483.542763
PC37 -20218.832547  -9200.043954  16889.537899   -787.547815
PC38 -20695.655394  20067.582356  30760.086440     73.685251
PC39 -20476.734441  36999.363918    -20.679783     -2.671357
PC40  -6645.009880  29471.032326 -29329.017955    -21.181805
PC41  -9184.250992 -23764.925100 -11342.498828   -887.539294
PC42  19287.768543   2112.549458 -19996.521892   -723.570435
PC43  13211.628614 -23789.258153   6115.188392     18.070349
PC44  12479.115722  11433.234438  22176.564732     84.898093
PC45   1859.443850  16090.098014 -22725.860699    -88.731853
PC46 -27559.930101   4249.818593   -234.586289    -49.048953
PE01  19811.903641  17988.321749 -12661.737591      5.463357
PE02 -20173.862677 -17842.187484  12257.607241     34.043085
PE03 -12092.764805 -23729.867901  12935.386313   -672.065415
PE04  17269.971594   4869.340477 -23527.483227   -106.907398
PE05    345.277410 -29073.871639  -5547.953622    -74.046619
PE07 -12526.856611  17111.921809  20657.525172    -39.786729
PE08 -17147.847637  -5168.174036  23576.423552    -71.984381
PE10  25464.095490 -11766.320000   9435.712119   -528.592323
PE11  23202.983644 -18334.351642   -993.137329   1701.958802
PE12  23653.585186  -3790.273072  17364.674443   -510.204741
PE13 -23523.978481  17979.072337    168.105749    -18.772541
PE14  14073.299123   9412.951680  16601.271063    205.310726
PE15 -23499.313850   3597.272533 -17641.857377    -16.654285
PE18 -18047.763907 -15889.117660 -21505.141462   -132.218592
PE19  10558.488643  25485.256470 -10719.576903  -2697.780018
PE21   1799.777282  18152.985747 -23316.983784   -525.052657
PE24  19375.126495  -7449.797295  21091.474455    -60.182673
PE25  -1421.155253 -18059.414566  23409.078777   -603.813335
PE26  -8996.077828  21609.925031  18122.761318     83.690558
PE27 -18682.139334   8042.612890 -21504.396976    -32.199818
PE30 -27960.989237  -7191.598310  -6514.518150   -116.291233
PE31  27959.191021   6702.695543   7046.847914   -522.072282
PE33   9584.399937  12813.449130  24902.551324   -445.651572
PE34  -9771.077540 -12680.230345 -24905.651111    -41.734528
PE36   9762.154247 -21648.079335 -17661.183443    -45.671948
PG01   8660.480762 -18832.572155 -16722.982684    190.870718
PG02  11703.415531  10172.650106  22164.714160   -603.220691
PG03  -2109.816953 -16558.428202 -20816.279994   -322.190397
PG04    434.355937 -26404.716472  -2180.711098     23.884741
PG05 -14936.611550   8702.364105  20026.197036   -124.506999
PG06 -21336.539497   1863.700861 -15709.983648    587.595124
PG07  -6753.884759 -14231.708374  21803.940444    194.821414
PG08   7438.942709 -21292.848490  13635.135315   -119.120041
PG09  -7869.376246 -24104.843150   7758.478017   -173.971545
PG10  24206.237076  11328.427645   -317.354424    -34.034475
PG11 -23483.889921  12036.818259  -2838.972317   -172.220755
PG12  -1771.312906  16021.909683 -21405.081319   -367.443035
PG13 -12935.903321  14956.391359  17457.095724    509.936263
PG14 -22839.011769 -13556.342244   2079.467704     34.028971
PG15  -4683.057649  22503.321371  12621.975062     33.213723
PG16  18258.651553  -4198.175030  18695.435084   -506.692995
PG17 -12769.092258 -13457.242780 -18540.657275    711.898436
PG18   9562.714613  11548.195498  21929.287619   -236.638268
PG19 -14825.699144  -3800.041755 -21958.139750    307.506307
PG20 -22093.583218   4122.801325  14036.167042    437.436956
PG21  15141.178120 -19517.248310  -7953.386515    154.122276
PG22  14974.353423   -334.409335 -21483.117249    469.242301
PG23  18159.362385  16171.723634  10865.089374     18.862727
PG24 -10844.410103  20777.242177 -12440.253873   -162.693200
PG25  10488.659500  18080.131514 -16857.433181    437.744958
PG26  24998.331648   2938.039756   8880.397352    241.530795
PG27  12944.858252 -11084.836528  20008.711386     52.589916
PG28  20520.702011   -484.816194 -16877.808484     69.358312
PG29   3158.572754  25895.786368   4695.142993   -596.695169
PG30 -17272.660169  -5751.535002  19530.227442   -520.939347
PG31  23858.780404  -6925.964072 -10176.320794   -214.614390
PG32  14631.019297  10219.341692 -19555.561656   -458.967033
PJ02 -26093.433342  16682.200539 -24070.758513     -1.623989
PJ03 -27008.844102  31868.043635  -1327.473557      2.797658
PJ04 -26784.350208  25690.558892  26035.172772     94.254952
PR01   4649.224414 -12742.403850 -21598.842334     27.216990
PR02  -7288.307947 -22770.130127  -8755.643686    -22.919996
PR03 -14760.347870 -18889.842948   8690.334945     76.533535
PR04 -13646.175157  -4906.889672  21017.270000    184.443098
PR05  -5335.855786  11874.116894  21957.600658    111.423797
PR07  14862.376223  18540.330849  -9291.333606     54.437049
PR08  13698.529393   4663.950933 -20948.786677    -70.469104
PR09   2499.973257  11260.976819 -22729.830832    116.295605
PR11  25489.581180     99.266780    722.021952    -41.564917
PR12  16445.807699  -8086.495924  17772.532466     26.676113
PR13   -379.397081 -11032.102447  22979.224812    -34.284937
PR14 -19485.287403  -7510.491493  14671.666630     24.588136
PR15 -25437.952841    219.479430  -1900.482295     89.644021
PR16 -16700.658432   7973.660630 -17564.802707     13.829329
PR17  -6711.904646  -8921.406127 -22934.404551    623.757754
PR18 -14949.576907   7099.196071 -19422.225506     77.986818
PR19 -16348.367928  18201.956183  -7227.761795   -230.113818
PR20  -7094.374086  20670.166899  13200.096768    -91.655068
PR21   7669.170804   7392.814968  23171.344271     -2.174422
PR22  15719.777598  -7140.417784  18792.029836     80.600142
PR24   5733.248050 -20810.201053 -13586.732257    164.316133
PR25   6442.139734   9528.270494  22768.129236     63.554277
EOF
